METEOSAT-9 (MSG-2)      
1 28912U 05049B   26161.84794816  .00000136  00000+0  00000+0 0  9991
2 28912   9.3464  54.2281 0001608 348.0762 207.8226  1.00269523  6930
METOP-B                 
1 38771U 12049A   26162.69909931  .00000086  00000+0  59179-4 0  9993
2 38771  98.6506 214.3076 0002565  32.8216 327.3121 14.21431239712486
METEOSAT-11 (MSG-4)     
1 40732U 15034A   26162.69638027  .00000079  00000+0  00000+0 0  9991
2 40732   3.1883  71.1420 0001744   7.6014  81.5005  1.00278631  7161
METOP-C                 
1 43689U 18087A   26162.64821455  .00000082  00000+0  57114-4 0  9997
2 43689  98.6645 222.3528 0001569 135.5230 224.6074 14.21510643394046
NEMO-HD                 
1 46277U 20061F   26162.68768598  .00009797  00000+0  21329-3 0  9990
2 46277  97.1928 224.6961 0002462  87.3051 272.8480 15.44483980321139
METEOSAT-12 (MTG-I1)    
1 54743U 22170C   26162.69438692  .00000008  00000+0  00000+0 0  9995
2 54743   0.7318  21.9787 0003235  72.0387  55.5733  1.00271721 12921
MTG-S1                  
1 64723U 25143A   26162.33730206 -.00000015  00000+0  00000+0 0  9993
2 64723   0.6085 337.5964 0000968  19.3395  20.7012  1.00271596  3368
MICROCARB               
1 64899U 25156A   26162.64491770  .00000425  00000+0  74946-4 0  9994
2 64899  97.9832 239.8811 0015026 291.6302  68.3304 14.72319891 47151
NISAR                   
1 65053U 25163A   26162.68526323  .00000214  00000+0  77771-4 0  9997
2 65053  98.4052 350.4306 0001217  89.2424 270.8905 14.42505520 45592
METOP-SGA1              
1 65159U 25172A   26162.64852691  .00000032  00000+0  34430-4 0  9993
2 65159  98.6645 222.4772 0000944  89.4814 270.6472 14.21508922 43002
